ISS OBJECT XK           
1 65731U 98067XK  26059.12837864  .00630708  18846-3  12055-2 0  9992
2 65731  51.6183  97.4254 0007108  32.5646 327.5800 15.99951231 25367
YOTSUBA-KULOVER         
1 65941U 98067XN  26059.14552332  .00162897  00000+0  98709-3 0  9990
2 65941  51.6224 106.6440 0006061  13.6403 346.4759 15.76514195 21991
BOTAN                   
1 65942U 98067XP  26059.15048826  .01510393  15687-2  16749-2 0  9992
2 65942  51.6100  99.7930 0008258  31.1515 328.9987 16.09175023 22089
E-KAGAKU-1              
1 65943U 98067XQ  26059.14827414  .00158889  00000+0  97270-3 0  9996
2 65943  51.6246 106.6780 0006427  21.7004 338.4267 15.76292129 21992
HRC MONOBLOCK CAMERA    
1 66052U 98067XR  26058.39710879  .00048635  00000+0  57057-3 0  9996
2 66052  51.6283 117.4313 0003170  49.9480 310.1791 15.60992325 20782
HTV-X1                  
1 66174U 25241A   26058.89712272  .00011820  00000+0  22726-3 0  9990
2 66174  51.6325 120.7666 0008322 140.4026 219.7571 15.48349372554538
SZ-21 MODULE            
1 66515U 25246C   26058.62877085  .00034956  00000+0  31215-3 0  9997
2 66515  41.4741 265.2557 0001443 287.0707  72.9977 15.67676592 16496
SHENZHOU-22             
1 66645U 25272A   26059.05129099  .00025114  00000+0  30234-3 0  9999
2 66645  41.4655 266.7888 0006233 212.0372 148.0088 15.60212103267601
SOYUZ-MS 28             
1 66664U 25275A   26058.89712272  .00011820  00000+0  22726-3 0  9991
2 66664  51.6325 120.7666 0008322 140.4026 219.7571 15.48349372554587
DUPLEX                  
1 66906U 98067XS  26059.14426076  .00030866  00000+0  44824-3 0  9996
2 66906  51.6293 117.1710 0001894  83.1369 276.9838 15.55524767 13649
ISS OBJECT XT           
1 66907U 98067XT  26058.44621190  .00125241  00000+0  11870-2 0  9999
2 66907  51.6259 117.7515 0004211  20.2087 339.9075 15.66015368 13575
ISS OBJECT XU           
1 66908U 98067XU  26059.14690627  .00126369  00000+0  11852-2 0  9991
2 66908  51.6255 114.1777 0004453  26.1714 333.9506 15.66271606 13687
