CCSDS_OMM_VERS = 2.0
CREATION_DATE  = 
ORIGINATOR     = 

OBJECT_NAME    = ISS OBJECT XK
OBJECT_ID      = 1998-067XK
CENTER_NAME    = EARTH
REF_FRAME      = TEME
TIME_SYSTEM    = UTC
MEAN_ELEMENT_THEORY = SGP/SGP4

EPOCH          = 2026-02-28T03:04:51.914496
MEAN_MOTION    = 15.99951231
ECCENTRICITY   = .0007108
INCLINATION    = 51.6183
RA_OF_ASC_NODE = 97.4254
ARG_OF_PERICENTER = 32.5646
MEAN_ANOMALY   = 327.5800

EPHEMERIS_TYPE = 0
CLASSIFICATION_TYPE = U
NORAD_CAT_ID   = 65731
ELEMENT_SET_NO = 999
REV_AT_EPOCH   = 2536
BSTAR          = .12055E-2
MEAN_MOTION_DOT = .630708E-2
MEAN_MOTION_DDOT = .18846E-3

CCSDS_OMM_VERS = 2.0
CREATION_DATE  = 
ORIGINATOR     = 

OBJECT_NAME    = YOTSUBA-KULOVER
OBJECT_ID      = 1998-067XN
CENTER_NAME    = EARTH
REF_FRAME      = TEME
TIME_SYSTEM    = UTC
MEAN_ELEMENT_THEORY = SGP/SGP4

EPOCH          = 2026-02-28T03:29:33.214848
MEAN_MOTION    = 15.76514195
ECCENTRICITY   = .0006061
INCLINATION    = 51.6224
RA_OF_ASC_NODE = 106.6440
ARG_OF_PERICENTER = 13.6403
MEAN_ANOMALY   = 346.4759

EPHEMERIS_TYPE = 0
CLASSIFICATION_TYPE = U
NORAD_CAT_ID   = 65941
ELEMENT_SET_NO = 999
REV_AT_EPOCH   = 2199
BSTAR          = .98709E-3
MEAN_MOTION_DOT = .162897E-2
MEAN_MOTION_DDOT = 0

CCSDS_OMM_VERS = 2.0
CREATION_DATE  = 
ORIGINATOR     = 

OBJECT_NAME    = BOTAN
OBJECT_ID      = 1998-067XP
CENTER_NAME    = EARTH
REF_FRAME      = TEME
TIME_SYSTEM    = UTC
MEAN_ELEMENT_THEORY = SGP/SGP4

EPOCH          = 2026-02-28T03:36:42.185664
MEAN_MOTION    = 16.09175023
ECCENTRICITY   = .0008258
INCLINATION    = 51.6100
RA_OF_ASC_NODE = 99.7930
ARG_OF_PERICENTER = 31.1515
MEAN_ANOMALY   = 328.9987

EPHEMERIS_TYPE = 0
CLASSIFICATION_TYPE = U
NORAD_CAT_ID   = 65942
ELEMENT_SET_NO = 999
REV_AT_EPOCH   = 2208
BSTAR          = .16749E-2
MEAN_MOTION_DOT = .1510393E-1
MEAN_MOTION_DDOT = .15687E-2

CCSDS_OMM_VERS = 2.0
CREATION_DATE  = 
ORIGINATOR     = 

OBJECT_NAME    = E-KAGAKU-1
OBJECT_ID      = 1998-067XQ
CENTER_NAME    = EARTH
REF_FRAME      = TEME
TIME_SYSTEM    = UTC
MEAN_ELEMENT_THEORY = SGP/SGP4

EPOCH          = 2026-02-28T03:33:30.885696
MEAN_MOTION    = 15.76292129
ECCENTRICITY   = .0006427
INCLINATION    = 51.6246
RA_OF_ASC_NODE = 106.6780
ARG_OF_PERICENTER = 21.7004
MEAN_ANOMALY   = 338.4267

EPHEMERIS_TYPE = 0
CLASSIFICATION_TYPE = U
NORAD_CAT_ID   = 65943
ELEMENT_SET_NO = 999
REV_AT_EPOCH   = 2199
BSTAR          = .9727E-3
MEAN_MOTION_DOT = .158889E-2
MEAN_MOTION_DDOT = 0

CCSDS_OMM_VERS = 2.0
CREATION_DATE  = 
ORIGINATOR     = 

OBJECT_NAME    = HRC MONOBLOCK CAMERA
OBJECT_ID      = 1998-067XR
CENTER_NAME    = EARTH
REF_FRAME      = TEME
TIME_SYSTEM    = UTC
MEAN_ELEMENT_THEORY = SGP/SGP4

EPOCH          = 2026-02-27T09:31:50.199456
MEAN_MOTION    = 15.60992325
ECCENTRICITY   = .00031704
INCLINATION    = 51.6283
RA_OF_ASC_NODE = 117.4313
ARG_OF_PERICENTER = 49.9480
MEAN_ANOMALY   = 310.1791

EPHEMERIS_TYPE = 0
CLASSIFICATION_TYPE = U
NORAD_CAT_ID   = 66052
ELEMENT_SET_NO = 999
REV_AT_EPOCH   = 2078
BSTAR          = .5705658E-3
MEAN_MOTION_DOT = .48635E-3
MEAN_MOTION_DDOT = 0

CCSDS_OMM_VERS = 2.0
CREATION_DATE  = 
ORIGINATOR     = 

OBJECT_NAME    = HTV-X1
OBJECT_ID      = 2025-241A
CENTER_NAME    = EARTH
REF_FRAME      = TEME
TIME_SYSTEM    = UTC
MEAN_ELEMENT_THEORY = SGP/SGP4

EPOCH          = 2026-02-27T21:31:51.403008
MEAN_MOTION    = 15.48349372
ECCENTRICITY   = .0008322
INCLINATION    = 51.6325
RA_OF_ASC_NODE = 120.7666
ARG_OF_PERICENTER = 140.4026
MEAN_ANOMALY   = 219.7571

EPHEMERIS_TYPE = 0
CLASSIFICATION_TYPE = U
NORAD_CAT_ID   = 66174
ELEMENT_SET_NO = 999
REV_AT_EPOCH   = 55453
BSTAR          = .22726E-3
MEAN_MOTION_DOT = .1182E-3
MEAN_MOTION_DDOT = 0

CCSDS_OMM_VERS = 2.0
CREATION_DATE  = 
ORIGINATOR     = 

OBJECT_NAME    = SZ-21 MODULE
OBJECT_ID      = 2025-246C
CENTER_NAME    = EARTH
REF_FRAME      = TEME
TIME_SYSTEM    = UTC
MEAN_ELEMENT_THEORY = SGP/SGP4

EPOCH          = 2026-02-27T15:05:25.801440
MEAN_MOTION    = 15.67676592
ECCENTRICITY   = .00014439
INCLINATION    = 41.4741
RA_OF_ASC_NODE = 265.2557
ARG_OF_PERICENTER = 287.0707
MEAN_ANOMALY   = 72.9977

EPHEMERIS_TYPE = 0
CLASSIFICATION_TYPE = U
NORAD_CAT_ID   = 66515
ELEMENT_SET_NO = 999
REV_AT_EPOCH   = 1649
BSTAR          = .31215352E-3
MEAN_MOTION_DOT = .34956E-3
MEAN_MOTION_DDOT = 0

CCSDS_OMM_VERS = 2.0
CREATION_DATE  = 
ORIGINATOR     = 

OBJECT_NAME    = SHENZHOU-22
OBJECT_ID      = 2025-272A
CENTER_NAME    = EARTH
REF_FRAME      = TEME
TIME_SYSTEM    = UTC
MEAN_ELEMENT_THEORY = SGP/SGP4

EPOCH          = 2026-02-28T01:13:51.541536
MEAN_MOTION    = 15.60212103
ECCENTRICITY   = .0006233
INCLINATION    = 41.4655
RA_OF_ASC_NODE = 266.7888
ARG_OF_PERICENTER = 212.0372
MEAN_ANOMALY   = 148.0088

EPHEMERIS_TYPE = 0
CLASSIFICATION_TYPE = U
NORAD_CAT_ID   = 66645
ELEMENT_SET_NO = 999
REV_AT_EPOCH   = 26760
BSTAR          = .30234E-3
MEAN_MOTION_DOT = .25114E-3
MEAN_MOTION_DDOT = 0

CCSDS_OMM_VERS = 2.0
CREATION_DATE  = 
ORIGINATOR     = 

OBJECT_NAME    = SOYUZ-MS 28
OBJECT_ID      = 2025-275A
CENTER_NAME    = EARTH
REF_FRAME      = TEME
TIME_SYSTEM    = UTC
MEAN_ELEMENT_THEORY = SGP/SGP4

EPOCH          = 2026-02-27T21:31:51.403008
MEAN_MOTION    = 15.48349372
ECCENTRICITY   = .0008322
INCLINATION    = 51.6325
RA_OF_ASC_NODE = 120.7666
ARG_OF_PERICENTER = 140.4026
MEAN_ANOMALY   = 219.7571

EPHEMERIS_TYPE = 0
CLASSIFICATION_TYPE = U
NORAD_CAT_ID   = 66664
ELEMENT_SET_NO = 999
REV_AT_EPOCH   = 55458
BSTAR          = .22726E-3
MEAN_MOTION_DOT = .1182E-3
MEAN_MOTION_DDOT = 0

CCSDS_OMM_VERS = 2.0
CREATION_DATE  = 
ORIGINATOR     = 

OBJECT_NAME    = DUPLEX
OBJECT_ID      = 1998-067XS
CENTER_NAME    = EARTH
REF_FRAME      = TEME
TIME_SYSTEM    = UTC
MEAN_ELEMENT_THEORY = SGP/SGP4

EPOCH          = 2026-02-28T03:27:44.129664
MEAN_MOTION    = 15.55524767
ECCENTRICITY   = .0001894
INCLINATION    = 51.6293
RA_OF_ASC_NODE = 117.1710
ARG_OF_PERICENTER = 83.1369
MEAN_ANOMALY   = 276.9838

EPHEMERIS_TYPE = 0
CLASSIFICATION_TYPE = U
NORAD_CAT_ID   = 66906
ELEMENT_SET_NO = 999
REV_AT_EPOCH   = 1364
BSTAR          = .44824E-3
MEAN_MOTION_DOT = .30866E-3
MEAN_MOTION_DDOT = 0

CCSDS_OMM_VERS = 2.0
CREATION_DATE  = 
ORIGINATOR     = 

OBJECT_NAME    = ISS OBJECT XT
OBJECT_ID      = 1998-067XT
CENTER_NAME    = EARTH
REF_FRAME      = TEME
TIME_SYSTEM    = UTC
MEAN_ELEMENT_THEORY = SGP/SGP4

EPOCH          = 2026-02-27T10:42:32.708160
MEAN_MOTION    = 15.66015368
ECCENTRICITY   = .00042119
INCLINATION    = 51.6259
RA_OF_ASC_NODE = 117.7515
ARG_OF_PERICENTER = 20.2087
MEAN_ANOMALY   = 339.9075

EPHEMERIS_TYPE = 0
CLASSIFICATION_TYPE = U
NORAD_CAT_ID   = 66907
ELEMENT_SET_NO = 999
REV_AT_EPOCH   = 1357
BSTAR          = .11869851E-2
MEAN_MOTION_DOT = .125241E-2
MEAN_MOTION_DDOT = 0

CCSDS_OMM_VERS = 2.0
CREATION_DATE  = 
ORIGINATOR     = 

OBJECT_NAME    = ISS OBJECT XU
OBJECT_ID      = 1998-067XU
CENTER_NAME    = EARTH
REF_FRAME      = TEME
TIME_SYSTEM    = UTC
MEAN_ELEMENT_THEORY = SGP/SGP4

EPOCH          = 2026-02-28T03:31:32.701728
MEAN_MOTION    = 15.66271606
ECCENTRICITY   = .0004453
INCLINATION    = 51.6255
RA_OF_ASC_NODE = 114.1777
ARG_OF_PERICENTER = 26.1714
MEAN_ANOMALY   = 333.9506

EPHEMERIS_TYPE = 0
CLASSIFICATION_TYPE = U
NORAD_CAT_ID   = 66908
ELEMENT_SET_NO = 999
REV_AT_EPOCH   = 1368
BSTAR          = .11852E-2
MEAN_MOTION_DOT = .126369E-2
MEAN_MOTION_DDOT = 0

